NORAD_CAT_ID,OBJECT_NAME,OBJECT_TYPE,EPOCH,MEAN_MOTION,ECCENTRICITY,INCLINATION,RA_OF_ASC_NODE,ARG_OF_PERICENTER,MEAN_ANOMALY,BSTAR,MEAN_MOTION_DOT,MEAN_MOTION_DDOT,TLE_LINE0,TLE_LINE1,TLE_LINE2,SEMIMAJOR_AXIS,PERIOD,APOGEE,PERIGEE,DECAYED
55275.0,STARLINK-5260,PAYLOAD,2023-05-17 22:00:00,15.51233922,0.0003534,70.0004,96.5624,262.476,228.7027,-7.0064e-05,-4.28e-05,0.0,0 STARLINK-5260,1 55275U 23010G   23137.91667824 -.00004280  00000-0 -70064-4 0  9996,2 55275  70.0004  96.5624 0003534 262.4760 228.7027 15.51233922 19080,6791.259,92.829,415.524,410.724,0.0
55275.0,STARLINK-5260,PAYLOAD,2023-05-18 14:00:01,15.51378743,0.0003585,70.0002,94.7394,263.7155,349.2831,-0.0084836,-0.00472542,0.0,0 STARLINK-5260,1 55275U 23010G   23138.58334491 -.00472542  00000-0 -84836-2 0  9991,2 55275  70.0002  94.7394 0003585 263.7155 349.2831 15.51378743 19184,6790.837,92.821,415.136,410.267,0.0
55275.0,STARLINK-5260,PAYLOAD,2023-05-18 22:00:00,15.51104365,0.0003599,70.0006,93.8282,262.947,50.9524,-0.018101,-0.00970126,0.0,0 STARLINK-5260,1 55275U 23010G   23138.91667824 -.00970126  00000-0 -18101-1 0  9999,2 55275  70.0006  93.8282 0003599 262.9470  50.9524 15.51104365 19238,6791.637,92.837,415.947,411.058,0.0
55275.0,STARLINK-5260,PAYLOAD,2023-05-19 14:00:01,15.49740896,0.0003204,70.0007,92.008,272.0893,161.7106,-0.017269,-0.00876585,0.0,0 STARLINK-5260,1 55275U 23010G   23139.58334491 -.00876585  00000-0 -17269-1 0  9992,2 55275  70.0007  92.0080 0003204 272.0893 161.7106 15.49740896 19330,6795.62,92.919,419.663,415.308,0.0
55275.0,STARLINK-5260,PAYLOAD,2023-05-19 21:26:15,15.50355025,0.0004123,69.9992,91.168,246.9122,113.163,-0.0017139,-0.00096613,0.0,0 STARLINK-5260,1 55275U 23010G   23139.89323369 -.00096613  00000-0 -17139-2 0  9991,2 55275  69.9992  91.1680 0004123 246.9122 113.1630 15.50355025 19704,6793.826,92.882,418.492,412.89,0.0
55275.0,STARLINK-5260,PAYLOAD,2023-05-20 05:11:31,15.49777378,0.0002281,70.0002,90.2897,244.6148,115.4802,-0.0027499,-0.00150713,0.0,0 STARLINK-5260,1 55275U 23010G   23140.21633857 -.00150713  00000-0 -27499-2 0  9997,2 55275  70.0002  90.2897 0002281 244.6148 115.4802 15.49777378 19438,6795.514,92.917,418.929,415.829,0.0
55275.0,STARLINK-5260,PAYLOAD,2023-05-20 14:00:01,15.47786962,0.0003166,70.0009,89.2844,269.1694,338.5778,-0.018544,-0.00878546,0.0,0 STARLINK-5260,1 55275U 23010G   23140.58334491 -.00878546  00000-0 -18544-1 0  9990,2 55275  70.0009  89.2844 0003166 269.1694 338.5778 15.47786962 19499,6801.338,93.036,425.357,421.05,0.0
55275.0,STARLINK-5260,PAYLOAD,2023-05-20 22:00:01,15.47187547,0.0003325,70.0013,88.3783,265.8644,38.3479,-0.020714,-0.00967073,0.0,0 STARLINK-5260,1 55275U 23010G   23140.91668981 -.00967073  00000-0 -20714-1 0  9997,2 55275  70.0013  88.3783 0003325 265.8644  38.3479 15.47187547  1309,6803.095,93.072,427.222,422.698,0.0
55275.0,STARLINK-5260,PAYLOAD,2023-05-21 06:00:00,15.46487394,0.0003343,70.0012,87.4731,273.1697,86.6282,-0.019367,-0.00888908,0.0,0 STARLINK-5260,1 55275U 23010G   23141.25001157 -.00888908  00000-0 -19367-1 0  9992,2 55275  70.0012  87.4731 0003343 273.1697  86.6282 15.46487394 19591,6805.148,93.114,429.288,424.738,0.0
55275.0,STARLINK-5260,PAYLOAD,2023-05-21 14:00:01,15.45821651,0.0003324,70.0011,86.5687,269.2977,145.3612,-0.019504,-0.00864488,0.0,0 STARLINK-5260,1 55275U 23010G   23141.58334491 -.00864488  00000-0 -19504-1 0  9998,2 55275  70.0011  86.5687 0003324 269.2977 145.3612 15.45821651  1303,6807.102,93.154,431.23,426.704,0.0
55275.0,STARLINK-5260,PAYLOAD,2023-05-21 22:00:00,15.45225374,0.0003284,70.0014,85.6651,268.8845,199.8277,-0.022058,-0.00962715,0.0,0 STARLINK-5260,1 55275U 23010G   23141.91667824 -.00962715  00000-0 -22058-1 0  9994,2 55275  70.0014  85.6651 0003284 268.8845 199.8277 15.45225374 19705,6808.853,93.19,432.954,428.482,0.0
55275.0,STARLINK-5260,PAYLOAD,2023-05-22 00:00:00,15.45038287,0.000326,70.0014,85.4394,268.9603,303.1593,-0.021461,-0.00933227,0.0,0 STARLINK-5260,1 55275U 23010G   23142.00001157 -.00933227  00000-0 -21461-1 0  9999,2 55275  70.0014  85.4394 0003260 268.9603 303.1593 15.45038287  1307,6809.403,93.202,433.487,429.048,0.0
55275.0,STARLINK-5260,PAYLOAD,2023-05-22 13:04:51,15.45996309,0.0003129,69.9981,83.9647,294.2511,65.8346,-0.0046221,-0.00220121,0.0,0 STARLINK-5260,1 55275U 23010G   23142.54503791 -.00220121  00000-0 -46221-2 0  9993,2 55275  69.9981  83.9647 0003129 294.2511  65.8346 15.45996309 20111,6806.589,93.144,430.584,426.324,0.0
55275.0,STARLINK-5260,PAYLOAD,2023-05-22 14:00:01,15.43864941,0.00032,70.0012,83.8609,270.6281,303.8993,-0.020826,-0.0087482,0.0,0 STARLINK-5260,1 55275U 23010G   23142.58334491 -.00874820  00000-0 -20826-1 0  9999,2 55275  70.0012  83.8609 0003200 270.6281 303.8993 15.43864941 19809,6812.852,93.272,436.897,432.537,0.0
55275.0,STARLINK-5260,PAYLOAD,2023-05-22 22:00:00,15.43269772,0.0003319,70.0012,82.9603,268.3614,357.8717,-0.023574,-0.00962587,0.0,0 STARLINK-5260,1 55275U 23010G   23142.91667824 -.00962587  00000-0 -23574-1 0  9996,2 55275  70.0012  82.9603 0003319 268.3614 357.8717 15.43269772  1308,6814.604,93.308,438.731,434.207,0.0
55275.0,STARLINK-5260,PAYLOAD,2023-05-23 06:00:00,15.4257012,0.0003367,70.001,82.0603,275.5061,41.6828,-0.021911,-0.00880553,0.0,0 STARLINK-5260,1 55275U 23010G   23143.25001157 -.00880553  00000-0 -21911-1 0  9990,2 55275  70.0010  82.0603 0003367 275.5061  41.6828 15.42570120 19903,6816.664,93.351,440.824,436.234,0.0
55275.0,STARLINK-5260,PAYLOAD,2023-05-23 22:00:00,15.41310242,0.0003511,70.0013,80.2633,271.0692,145.647,-0.025137,-0.00961169,0.0,0 STARLINK-5260,1 55275U 23010G   23143.91667824 -.00961169  00000-0 -25137-1 0  9999,2 55275  70.0013  80.2633 0003511 271.0692 145.6470 15.41310242 20008,6820.378,93.427,444.638,439.849,0.0
55275.0,STARLINK-5260,PAYLOAD,2023-05-24 14:00:01,15.39943635,0.0003389,70.0009,78.4692,271.6772,241.5296,-0.023299,-0.00859496,0.0,0 STARLINK-5260,1 55275U 23010G   23144.58335648 -.00859496  00000-0 -23299-1 0  9995,2 55275  70.0009  78.4692 0003389 271.6772 241.5296 15.39943635 20114,6824.413,93.51,448.591,443.965,0.0
55275.0,STARLINK-5260,PAYLOAD,2023-05-24 22:00:00,15.3934712,0.000341,70.0013,77.5738,268.8222,291.3361,-0.026507,-0.00950583,0.0,0 STARLINK-5260,1 55275U 23010G   23144.91667824 -.00950583  00000-0 -26507-1 0  9990,2 55275  70.0013  77.5738 0003410 268.8222 291.3361 15.39347120  1306,6826.176,93.546,450.368,445.713,0.0
55275.0,STARLINK-5260,PAYLOAD,2023-05-25 06:00:00,15.38653913,0.0003456,70.001,76.679,273.2607,333.1555,-0.024914,-0.00879252,0.0,0 STARLINK-5260,1 55275U 23010G   23145.25001157 -.00879252  00000-0 -24914-1 0  9992,2 55275  70.0010  76.6790 0003456 273.2607 333.1555 15.38653913 20218,6828.226,93.588,452.451,447.731,0.0
55275.0,STARLINK-5260,PAYLOAD,2023-05-25 14:00:01,15.37987926,0.0003431,70.0008,75.7851,268.1478,23.7414,-0.024936,-0.00862431,0.0,0 STARLINK-5260,1 55275U 23010G   23145.58334491 -.00862431  00000-0 -24936-1 0  9993,2 55275  70.0008  75.7851 0003431 268.1478  23.7414 15.37987926  1303,6830.197,93.629,454.405,449.718,0.0
55275.0,STARLINK-5260,PAYLOAD,2023-05-25 22:00:00,15.37393186,0.0003581,70.001,74.8922,267.7571,68.7996,-0.02849,-0.00957785,0.0,0 STARLINK-5260,1 55275U 23010G   23145.91667824 -.00957785  00000-0 -28490-1 0  9995,2 55275  70.0010  74.8922 0003581 267.7571  68.7996 15.37393186 20315,6831.958,93.665,456.27,451.377,0.0
55275.0,STARLINK-5260,PAYLOAD,2023-05-26 00:00:02,15.37208362,0.0003472,70.001,74.6691,271.1912,166.4879,-0.027844,-0.00932658,0.0,0 STARLINK-5260,1 55275U 23010G   23146.00002315 -.00932658  00000-0 -27844-1 0  9998,2 55275  70.0010  74.6691 0003472 271.1912 166.4879 15.37208362  1308,6832.506,93.676,456.743,451.999,0.0
55275.0,STARLINK-5260,PAYLOAD,2023-05-26 14:00:01,15.36023916,0.0003426,70.0007,73.1089,269.5028,154.0939,-0.026146,-0.00849532,0.0,0 STARLINK-5260,1 55275U 23010G   23146.58334491 -.00849532  00000-0 -26146-1 0  9996,2 55275  70.0007  73.1089 0003426 269.5028 154.0939 15.36023916 20419,6836.018,93.749,460.225,455.541,0.0
55275.0,STARLINK-5260,PAYLOAD,2023-05-26 22:00:01,15.3543766,0.0003435,70.0008,72.2187,269.9255,196.0541,-0.030588,-0.00964656,0.0,0 STARLINK-5260,1 55275U 23010G   23146.91668981 -.00964656  00000-0 -30588-1 0  9997,2 55275  70.0008  72.2187 0003435 269.9255 196.0541 15.35437660  1301,6837.758,93.784,461.972,457.274,0.0
55275.0,STARLINK-5260,PAYLOAD,2023-05-27 06:00:02,15.34753013,0.0003331,70.0006,71.3292,274.9028,232.6351,-0.028805,-0.0089466,0.0,0 STARLINK-5260,1 55275U 23010G   23147.25002315 -.00894660  00000-0 -28805-1 0  9994,2 55275  70.0006  71.3292 0003331 274.9028 232.6351 15.34753013 20528,6839.791,93.826,463.935,459.378,0.0
55275.0,STARLINK-5260,PAYLOAD,2023-05-27 22:00:00,15.33475635,0.0003315,70.0009,69.5534,268.2261,320.0097,-0.032297,-0.00957366,0.0,0 STARLINK-5260,1 55275U 23010G   23147.91667824 -.00957366  00000-0 -32297-1 0  9992,2 55275  70.0009  69.5534 0003315 268.2261 320.0097 15.33475635 20626,6843.589,93.904,467.723,463.185,0.0
55275.0,STARLINK-5260,PAYLOAD,2023-05-28 06:00:00,15.32804533,0.0003351,70.0005,68.6665,272.5614,354.8804,-0.031104,-0.00907021,0.0,0 STARLINK-5260,1 55275U 23010G   23148.25001157 -.00907021  00000-0 -31104-1 0  9990,2 55275  70.0005  68.6665 0003351 272.5614 354.8804 15.32804533  1304,6845.586,93.945,469.745,465.157,0.0
55275.0,STARLINK-5260,PAYLOAD,2023-05-28 14:00:01,15.32105875,0.0003332,70.0008,67.7807,267.2255,38.6613,-0.029182,-0.0083798,0.0,0 STARLINK-5260,1 55275U 23010G   23148.58334491 -.00837980  00000-0 -29182-1 0  9995,2 55275  70.0008  67.7807 0003332 267.2255  38.6613 15.32105875 20721,6847.667,93.988,471.814,467.251,0.0
55275.0,STARLINK-5260,PAYLOAD,2023-05-28 22:00:00,15.31515081,0.0003396,70.0011,66.8958,268.6921,74.8237,-0.03416,-0.00952392,0.0,0 STARLINK-5260,1 55275U 23010G   23148.91667824 -.00952392  00000-0 -34160-1 0  9998,2 55275  70.0011  66.8958 0003396 268.6921  74.8237 15.31515081 20779,6849.428,94.025,473.619,468.967,0.0
